#dP2020  2  1  1  0  0.00000000     576   u+U IGS14 FIT  WHU
## 2090 522000.00000000   300.00000000 58880 0.0416666666667
+  102   G01G02G03G04G05G06G07G08G09G10G11G12G13G14G15G16G17
+        G19G20G21G22G23G24G25G26G27G28G29G30G31G32R01R02R03
+        R04R05R07R08R11R12R13R14R15R16R17R18R19R20R21R22R23
+        C01C02C03C04C06C08C09C10C11C12C13C14C19C20C21C22C23
+        C24C25C26C27C28C29C30C33C34C35C36C37E01E02E03E04E05
+        E07E08E09E11E12E13E15E19E21E24E25E26E27E30E31E33E36
+          0  0  0  0  0  0  0  0  0  0  0  0  0  0  0  0  0
++         3  4  4  3  3  3  4  3  3  5  2  4  4  3  4  3  4
++         4  3  4  3  3  3  3  4  3  3  4  3  4  3  5  4  4
++         4  4  5  4  4  4  4  4  4  4  4  3  4  3  4  4  3
++         9  9  9  9 10  9 10 10 10 10 10 10 10 10 10 10 10
++        10 10  9 10 10 10 10 10 10 10  9  9  9  9  9  9  9
++         9  9  9  9  9  9  9  9  9  9  9  9  9  9  9  9  9
++         0  0  0  0  0  0  0  0  0  0  0  0  0  0  0  0  0
%c M  cc GPS ccc cccc cccc cccc cccc ccccc ccccc ccccc ccccc
%c cc cc ccc ccc cccc cccc cccc cccc ccccc ccccc ccccc ccccc
%f  1.2500000  1.025000000  0.00000000000  0.000000000000000
%f  0.0000000  0.000000000  0.00000000000  0.000000000000000
%i    0    0    0    0      0      0      0      0         0
%i    0    0    0    0      0      0      0      0         0
/* GNSS RESEARCH CENTER, WUHAN UNIVERSITY (WHU), P. R. CHINA
/* POSITION AND NAVIGATION DATA ANALYST (PANDA) SOFTWARE    
/*
/* PCV:IGS14_2085 OL/AL:FES2004  NONE     NN ORB:CoM CLK:CoN
*  2020  2  2 12 30  0.00000000
PG01 -13815.865304  17316.930496  14197.644598   -282.076710               P   P
PG02  14080.473221   5996.611812 -21079.369692   -397.371352               P   P
PG03 -20931.838936  13331.283152  -9390.254865    -85.449056               P   P
PG04 -11903.298758   9616.025599 -21704.351719    -43.134852               P   P
PG05  24575.280810   -619.597793 -10434.966778     -6.988809               P   P
PG06   8047.967760  18178.554174 -17541.483635   -198.299824               P   P
PG07  -5048.418620  25779.279873   1476.780570   -205.598170               P   P
PG08 -19212.102154   -190.877480  18473.818685    -22.364992               P   P
PG09  -1886.377960  17410.456737 -20022.659914   -146.501346               P   P
PG10  -6699.219477 -13729.963895  21815.638613   -231.161632               P   P
PG11 -13566.099978  10010.017308  20076.458122   -372.641363               P   P
PG12  23500.354486 -10263.900972  -6789.576042    155.671710               P   P
PG13  20489.770845   9257.744276  14077.342310    -15.714664               P   P
PG14 -18818.216341 -18797.861269  -1488.501576    -34.990492               P   P
PG15  19285.561801  -2361.507299  17961.114651   -254.360870               P   P
PG16 -24569.678638  -1972.583719 -10674.789908   -120.130250               P   P
PG17  13017.008233  21673.223457   8656.154339    209.215888               P   P
PG19  17617.848003  19868.962986    -30.753882   -204.159351               P   P
PG20   4620.495128 -17704.921572  19092.930486    527.845260               P   P
PG21   1387.030600 -26472.330630   3869.937294    -46.846837               P   P
PG22 -24364.766389  10377.189702   -654.895475   -783.715791               P   P
PG23 -11004.381602  10849.472934 -21256.343741   -139.063374               P   P
PG24  14190.090227 -15776.262345  15557.945815     -8.463190               P   P
PG25  13506.096655 -16013.949656 -16388.364200    -14.467811               P   P
PG26 -18737.715888  -6901.181670 -17647.453828    140.074115               P   P
PG27 -22072.372909 -10612.780245  10561.147355   -199.321915               P   P
PG28   6835.972700  13801.343959  22219.707183    741.698296               P   P
PG29   3393.487904 -16338.850121 -20689.526365    -22.952228               P   P
PG30   2610.161082  23625.245663  11673.551961   -143.637778               P   P
PG31  -9763.714432 -15683.632907 -18944.627439    -20.575228               P   P
PG32 -14834.516273 -20768.238014   7674.123506    201.689877               P   P
PR01  21569.938403   9198.965842 -10057.104051     56.471933               P   P
PR02  23081.260015   -166.440376  10830.273838    409.972836               P   P
PR03   9659.728791  -8637.217467  21999.035397      9.300607               P   P
PR04  -9159.793298 -11880.312197  20653.779803     37.393543               P   P
PR05 -22815.333690  -8575.254815   7568.659660     44.258723               P   P
PR07  -9192.243833   8772.929091 -22093.206267    -32.754297               P   P
PR08   9097.068533  11977.344428 -20548.764081    -50.344603               P   P
PR11  -1643.980828  16086.513851  19724.311607    -12.123216               P   P
PR12  11415.503545   3301.658502  22590.463550    102.191829               P   P
PR13  18647.147308 -12232.448326  12358.560716    -34.289340               P   P
PR14  14944.859325 -20062.170846  -4993.831452     47.686679               P   P
PR15   2579.135479 -16457.927464 -19297.003217    105.803368               P   P
PR16 -11978.682992  -2708.493322 -22400.182779     -1.302638               P   P
PR17   2838.964586 -17989.989536 -17826.784692    297.564076               P   P
PR18  -6347.437344 -24565.972756  -2887.838176     23.681703               P   P
PR19 -11542.085860 -18440.288669  13327.031417    -77.100812               P   P
PR20 -10656.060446    423.518413  23189.151981   -403.083823               P   P
PR21  -2337.394831  18622.207900  17294.949274   -102.284133               P   P
PR22   7487.414889  24315.643053     50.932776    -12.369304               P   P
PR23  12513.980444  12962.232456 -18055.299308    283.780828               P   P
PC01 -32273.304599  27110.145790   1010.463363    154.238803               P   P
PC02   4342.822812  41935.570260   -775.891971    571.616146               P   P
PC03 -14831.249662  39434.979206    181.378571   -343.713137               P   P
PC04 -39608.929838  14464.319501    627.273929   -423.994736               P   P
PC06  -6366.195957  26200.586457 -31983.006522    251.743310               P   P
PC08 -14665.182156  38742.463474   8820.415954   -103.002293               P   P
PC09   5228.920808  32639.157738 -25723.584602    305.974668               P   P
PC10  -8178.366518  28285.480837  30219.226200   -620.076208               P   P
PC11  18544.439343  14798.063249 -14667.058648   -157.284308               P   P
PC12  11375.005630  25341.531135   2857.950266    315.454106               P   P
PC13  -6362.279290  41606.412180  -4147.320135    243.383975               P   P
PC14  25726.324547   6605.244971  -8618.735743    126.355872               P   P
PC19 -27896.033419   -441.118339   -184.186758    315.366744               P   P
PC20 -19977.477113 -11404.094706  15795.687579   -648.218369               P   P
PC21    -84.403334  15940.251419 -22889.694732    -36.165261               P   P
PC22 -19714.625938  10972.621959 -16403.172869   -780.931021               P   P
PC23  17801.165701 -20734.138966   5638.612138   -881.573005               P   P
PC24   9280.186809  14505.205808  21955.293989   -914.384258               P   P
PC25  19229.282146  -5334.243939  19493.686468   -501.632358               P   P
PC26  -4882.771344  24754.233635  11953.384379    557.208156               P   P
PC27  -4261.119504 -25189.527000 -11262.855474    272.028917               P   P
PC28  10157.957240 -13657.697502 -22104.565362    262.967597               P   P
PC29 -18799.468344  -5055.899117  19995.587463    182.831360               P   P
PC30 -16852.531256 -21463.136876   5899.691543    266.379265               P   P
PC33  27911.686880    326.793818    153.233655   -856.503213               P   P
PC34  16935.635845  21258.555907  -6265.695238   -438.268529               P   P
PC35  -9857.453656  13877.791999  22112.413917   -831.990295               P   P
PC36 -19295.206749   4697.984877 -19585.835302   -835.309306               P   P
PC37   5921.535579 -24734.560820 -11447.990840   -893.870109               P   P
PE01 -16290.694624  -7815.851411 -23448.467130   -785.866175               P   P
PE02  16330.943556   7770.497090  23426.412056    110.534194               P   P
PE03  24486.246301  15881.380754  -4980.804494   -261.269904               P   P
PE04 -26447.776853  -2614.698115 -13034.453945   -457.223883               P   P
PE05   8136.191673  19978.115924 -20272.130437   -408.270318               P   P
PE07  12860.403450 -12373.624414  23617.688732   -334.845007               P   P
PE08  26373.954588   2355.895735  13239.261728   6226.618629               P   P
PE09 -12619.428300  12392.054193 -23733.110562   6169.711908               P   P
PE11  -9280.439719  22593.775899  16711.992388   1075.006248               P   P
PE12 -16221.068773   1991.886643  24690.385933   5971.767089               P   P
PE13   9241.628368 -22467.071136 -16901.250703    398.536727               P   P
PE15  16094.681252  -2331.850470 -24716.825618    879.254442               P   P
PE19 -23356.115927 -16793.868245   6983.859719     -1.143555               P   P
PE21   2824.259596 -19579.526324 -22020.140729   -579.884821               P   P
PE24 -20627.973697  19852.476778   7561.997087   5631.693381               P   P
PE25  -2947.001610  19622.475823  21970.393885   -502.274526               P   P
PE26  -3030.800822 -29421.992573   1131.591856   3576.439116               P   P
PE27  20465.738786 -19965.321768  -7639.126814    291.387115               P   P
PE30  26050.592141  -8353.092932  11271.645781   4176.119848               P   P
PE31 -26021.533911   8637.665404 -11158.278616   -470.992604               P   P
PE33 -13517.235668 -19193.108436  18048.698999   -470.048872               P   P
PE36   3019.435700  29431.796269   -809.421616    604.029477               P   P
EOF
